[{"OBJECT_NAME":"FENGYUN 1C DEB","OBJECT_ID":"1999-025BYG","EPOCH":"2026-03-01T15:26:49.250112","MEAN_MOTION":14.70213277,"ECCENTRICITY":0.00758474,"INCLINATION":98.986,"RA_OF_ASC_NODE":215.9099,"ARG_OF_PERICENTER":356.2106,"MEAN_ANOMALY":3.8513,"EPHEMERIS_TYPE":0,"CLASSIFICATION_TYPE":"U","NORAD_CAT_ID":31541,"ELEMENT_SET_NO":999,"REV_AT_EPOCH":99582,"BSTAR":0.00088996566,"MEAN_MOTION_DOT":5.546e-5,"MEAN_MOTION_DDOT":0},{"OBJECT_NAME":"FENGYUN 1C DEB","OBJECT_ID":"1999-025BYH","EPOCH":"2026-02-27T14:34:51.425760","MEAN_MOTION":14.23265486,"ECCENTRICITY":0.00445148,"INCLINATION":98.7233,"RA_OF_ASC_NODE":116.9394,"ARG_OF_PERICENTER":346.3063,"MEAN_ANOMALY":13.6904,"EPHEMERIS_TYPE":0,"CLASSIFICATION_TYPE":"U","NORAD_CAT_ID":31542,"ELEMENT_SET_NO":999,"REV_AT_EPOCH":97033,"BSTAR":0.0010117163,"MEAN_MOTION_DOT":2.27e-5,"MEAN_MOTION_DDOT":0},{"OBJECT_NAME":"FENGYUN 1C DEB","OBJECT_ID":"1999-025BYK","EPOCH":"2026-03-02T14:27:15.257088","MEAN_MOTION":14.14574572,"ECCENTRICITY":0.0032177,"INCLINATION":98.8182,"RA_OF_ASC_NODE":116.9133,"ARG_OF_PERICENTER":45.7495,"MEAN_ANOMALY":314.6311,"EPHEMERIS_TYPE":0,"CLASSIFICATION_TYPE":"U","NORAD_CAT_ID":31544,"ELEMENT_SET_NO":999,"REV_AT_EPOCH":96886,"BSTAR":0.00069027,"MEAN_MOTION_DOT":1.288e-5,"MEAN_MOTION_DDOT":0},{"OBJECT_NAME":"FENGYUN 1C DEB","OBJECT_ID":"1999-025BYM","EPOCH":"2026-03-02T15:06:04.347936","MEAN_MOTION":14.13683232,"ECCENTRICITY":0.0142922,"INCLINATION":98.2345,"RA_OF_ASC_NODE":129.8977,"ARG_OF_PERICENTER":265.0713,"MEAN_ANOMALY":93.4132,"EPHEMERIS_TYPE":0,"CLASSIFICATION_TYPE":"U","NORAD_CAT_ID":31546,"ELEMENT_SET_NO":999,"REV_AT_EPOCH":95917,"BSTAR":0.0016257,"MEAN_MOTION_DOT":3.346e-5,"MEAN_MOTION_DDOT":0},{"OBJECT_NAME":"FENGYUN 1C DEB","OBJECT_ID":"1999-025BYN","EPOCH":"2026-02-28T13:37:09.153120","MEAN_MOTION":14.23634115,"ECCENTRICITY":0.00517368,"INCLINATION":99.0809,"RA_OF_ASC_NODE":110.8275,"ARG_OF_PERICENTER":33.0907,"MEAN_ANOMALY":327.3489,"EPHEMERIS_TYPE":0,"CLASSIFICATION_TYPE":"U","NORAD_CAT_ID":31547,"ELEMENT_SET_NO":999,"REV_AT_EPOCH":65124,"BSTAR":0.0012477304,"MEAN_MOTION_DOT":2.838e-5,"MEAN_MOTION_DDOT":0},{"OBJECT_NAME":"FENGYUN 1C DEB","OBJECT_ID":"1999-025BYR","EPOCH":"2026-02-28T10:46:31.671552","MEAN_MOTION":14.40616226,"ECCENTRICITY":0.01911552,"INCLINATION":98.3155,"RA_OF_ASC_NODE":61.7396,"ARG_OF_PERICENTER":38.8171,"MEAN_ANOMALY":322.6572,"EPHEMERIS_TYPE":0,"CLASSIFICATION_TYPE":"U","NORAD_CAT_ID":31550,"ELEMENT_SET_NO":999,"REV_AT_EPOCH":66573,"BSTAR":0.00085576562,"MEAN_MOTION_DOT":3.342e-5,"MEAN_MOTION_DDOT":0},{"OBJECT_NAME":"FENGYUN 1C DEB","OBJECT_ID":"1999-025BYT","EPOCH":"2026-03-02T07:43:54.864192","MEAN_MOTION":14.4815249,"ECCENTRICITY":0.00872356,"INCLINATION":98.6189,"RA_OF_ASC_NODE":189.6065,"ARG_OF_PERICENTER":142.6253,"MEAN_ANOMALY":218.1051,"EPHEMERIS_TYPE":0,"CLASSIFICATION_TYPE":"U","NORAD_CAT_ID":31552,"ELEMENT_SET_NO":999,"REV_AT_EPOCH":97027,"BSTAR":0.004446625,"MEAN_MOTION_DOT":0.00017373,"MEAN_MOTION_DDOT":0},{"OBJECT_NAME":"FENGYUN 1C DEB","OBJECT_ID":"1999-025BYU","EPOCH":"2026-03-02T15:26:38.158944","MEAN_MOTION":14.30977685,"ECCENTRICITY":0.0029958,"INCLINATION":98.996,"RA_OF_ASC_NODE":124.1648,"ARG_OF_PERICENTER":222.2048,"MEAN_ANOMALY":291.4929,"EPHEMERIS_TYPE":0,"CLASSIFICATION_TYPE":"U","NORAD_CAT_ID":31553,"ELEMENT_SET_NO":999,"REV_AT_EPOCH":97052,"BSTAR":0.0017168,"MEAN_MOTION_DOT":4.492e-5,"MEAN_MOTION_DDOT":0},{"OBJECT_NAME":"FENGYUN 1C DEB","OBJECT_ID":"1999-025BYV","EPOCH":"2026-02-23T20:12:53.296128","MEAN_MOTION":14.53840191,"ECCENTRICITY":0.00382793,"INCLINATION":98.9073,"RA_OF_ASC_NODE":198.3374,"ARG_OF_PERICENTER":162.4637,"MEAN_ANOMALY":197.7889,"EPHEMERIS_TYPE":0,"CLASSIFICATION_TYPE":"U","NORAD_CAT_ID":31554,"ELEMENT_SET_NO":999,"REV_AT_EPOCH":65918,"BSTAR":0.0034137245,"MEAN_MOTION_DOT":0.00014457,"MEAN_MOTION_DDOT":0},{"OBJECT_NAME":"FENGYUN 1C DEB","OBJECT_ID":"1999-025BYW","EPOCH":"2026-03-02T20:12:25.348320","MEAN_MOTION":14.45614696,"ECCENTRICITY":0.0152381,"INCLINATION":99.1108,"RA_OF_ASC_NODE":26.7207,"ARG_OF_PERICENTER":319.8029,"MEAN_ANOMALY":39.1969,"EPHEMERIS_TYPE":0,"CLASSIFICATION_TYPE":"U","NORAD_CAT_ID":31555,"ELEMENT_SET_NO":999,"REV_AT_EPOCH":97720,"BSTAR":0.0027877,"MEAN_MOTION_DOT":0.00011331,"MEAN_MOTION_DDOT":0},{"OBJECT_NAME":"FENGYUN 1C DEB","OBJECT_ID":"1999-025BYZ","EPOCH":"2026-03-02T17:04:30.080928","MEAN_MOTION":14.38868565,"ECCENTRICITY":0.0212081,"INCLINATION":98.7861,"RA_OF_ASC_NODE":324.0948,"ARG_OF_PERICENTER":25.2998,"MEAN_ANOMALY":0.3397,"EPHEMERIS_TYPE":0,"CLASSIFICATION_TYPE":"U","NORAD_CAT_ID":31558,"ELEMENT_SET_NO":999,"REV_AT_EPOCH":98585,"BSTAR":0.00035164,"MEAN_MOTION_DOT":1.353e-5,"MEAN_MOTION_DDOT":0},{"OBJECT_NAME":"FENGYUN 1C DEB","OBJECT_ID":"1999-025BZA","EPOCH":"2026-03-02T16:10:03.132768","MEAN_MOTION":14.65054489,"ECCENTRICITY":0.0053676,"INCLINATION":98.8736,"RA_OF_ASC_NODE":26.9045,"ARG_OF_PERICENTER":310.4157,"MEAN_ANOMALY":228.1435,"EPHEMERIS_TYPE":0,"CLASSIFICATION_TYPE":"U","NORAD_CAT_ID":31559,"ELEMENT_SET_NO":999,"REV_AT_EPOCH":98726,"BSTAR":0.0020483,"MEAN_MOTION_DOT":0.00011181,"MEAN_MOTION_DDOT":0},{"OBJECT_NAME":"FENGYUN 1C DEB","OBJECT_ID":"1999-025BZB","EPOCH":"2026-03-01T21:35:26.726496","MEAN_MOTION":14.21249276,"ECCENTRICITY":0.0122048,"INCLINATION":98.5828,"RA_OF_ASC_NODE":99.8122,"ARG_OF_PERICENTER":79.0177,"MEAN_ANOMALY":282.4702,"EPHEMERIS_TYPE":0,"CLASSIFICATION_TYPE":"U","NORAD_CAT_ID":31560,"ELEMENT_SET_NO":999,"REV_AT_EPOCH":97743,"BSTAR":8.8945e-5,"MEAN_MOTION_DOT":1.67e-6,"MEAN_MOTION_DDOT":0},{"OBJECT_NAME":"FENGYUN 1C DEB","OBJECT_ID":"1999-025BZC","EPOCH":"2026-03-01T22:37:54.044832","MEAN_MOTION":14.02887925,"ECCENTRICITY":0.0055913,"INCLINATION":98.722,"RA_OF_ASC_NODE":58.6334,"ARG_OF_PERICENTER":322.8727,"MEAN_ANOMALY":66.3185,"EPHEMERIS_TYPE":0,"CLASSIFICATION_TYPE":"U","NORAD_CAT_ID":31561,"ELEMENT_SET_NO":999,"REV_AT_EPOCH":96289,"BSTAR":0.0004055,"MEAN_MOTION_DOT":5.95e-6,"MEAN_MOTION_DDOT":0},{"OBJECT_NAME":"FENGYUN 1C DEB","OBJECT_ID":"1999-025BZD","EPOCH":"2026-03-01T09:24:31.978656","MEAN_MOTION":14.42679896,"ECCENTRICITY":0.00567013,"INCLINATION":99.2648,"RA_OF_ASC_NODE":223.6318,"ARG_OF_PERICENTER":53.2818,"MEAN_ANOMALY":307.3558,"EPHEMERIS_TYPE":0,"CLASSIFICATION_TYPE":"U","NORAD_CAT_ID":31562,"ELEMENT_SET_NO":999,"REV_AT_EPOCH":98124,"BSTAR":0.00089615004,"MEAN_MOTION_DOT":2.988e-5,"MEAN_MOTION_DDOT":0},{"OBJECT_NAME":"FENGYUN 1C DEB","OBJECT_ID":"1999-025BZE","EPOCH":"2026-03-02T09:27:16.619904","MEAN_MOTION":14.65988706,"ECCENTRICITY":0.01121123,"INCLINATION":98.9591,"RA_OF_ASC_NODE":227.0196,"ARG_OF_PERICENTER":193.3122,"MEAN_ANOMALY":166.5116,"EPHEMERIS_TYPE":0,"CLASSIFICATION_TYPE":"U","NORAD_CAT_ID":31563,"ELEMENT_SET_NO":999,"REV_AT_EPOCH":99711,"BSTAR":0.0012678227,"MEAN_MOTION_DOT":7.568e-5,"MEAN_MOTION_DDOT":0}]
