FENGYUN 1C DEB          
1 31541U 99025BYG 26060.64362558  .00005546  00000+0  88997-3 0  9995
2 31541  98.9860 215.9099 0075847 356.2106   3.8513 14.70213277995822
FENGYUN 1C DEB          
1 31542U 99025BYH 26058.60753965  .00002270  00000+0  10117-2 0  9994
2 31542  98.7233 116.9394 0044514 346.3063  13.6904 14.23265486970331
FENGYUN 1C DEB          
1 31544U 99025BYK 26061.60225992  .00001288  00000+0  69027-3 0  9997
2 31544  98.8182 116.9133 0032177  45.7495 314.6311 14.14574572968869
FENGYUN 1C DEB          
1 31546U 99025BYM 26061.62921699  .00003346  00000+0  16257-2 0  9991
2 31546  98.2345 129.8977 0142922 265.0713  93.4132 14.13683232959175
FENGYUN 1C DEB          
1 31547U 99025BYN 26059.56746705  .00002838  00000+0  12477-2 0  9990
2 31547  99.0809 110.8275 0051736  33.0907 327.3489 14.23634115651249
FENGYUN 1C DEB          
1 31550U 99025BYR 26059.44897768  .00003342  00000+0  85577-3 0  9990
2 31550  98.3155  61.7396 0191155  38.8171 322.6572 14.40616226665735
FENGYUN 1C DEB          
1 31552U 99025BYT 26061.32216278  .00017373  00000+0  44466-2 0  9993
2 31552  98.6189 189.6065 0087235 142.6253 218.1051 14.48152490970273
FENGYUN 1C DEB          
1 31553U 99025BYU 26061.64349721  .00004492  00000+0  17168-2 0  9996
2 31553  98.9960 124.1648 0029958 222.2048 291.4929 14.30977685970528
FENGYUN 1C DEB          
1 31554U 99025BYV 26054.84228352  .00014457  00000+0  34137-2 0  9994
2 31554  98.9073 198.3374 0038279 162.4637 197.7889 14.53840191659183
FENGYUN 1C DEB          
1 31555U 99025BYW 26061.84196005  .00011331  00000+0  27877-2 0  9993
2 31555  99.1108  26.7207 0152381 319.8029  39.1969 14.45614696977203
FENGYUN 1C DEB          
1 31558U 99025BYZ 26061.71145927  .00001353  00000+0  35164-3 0  9991
2 31558  98.7861 324.0948 0212081  25.2998   0.3397 14.38868565985853
FENGYUN 1C DEB          
1 31559U 99025BZA 26061.67364737  .00011181  00000+0  20483-2 0  9996
2 31559  98.8736  26.9045 0053676 310.4157 228.1435 14.65054489987263
FENGYUN 1C DEB          
1 31560U 99025BZB 26060.89961489  .00000167  00000+0  88945-4 0  9999
2 31560  98.5828  99.8122 0122048  79.0177 282.4702 14.21249276977439
FENGYUN 1C DEB          
1 31561U 99025BZC 26060.94298663  .00000595  00000+0  40550-3 0  9997
2 31561  98.7220  58.6334 0055913 322.8727  66.3185 14.02887925962898
FENGYUN 1C DEB          
1 31562U 99025BZD 26060.39203679  .00002988  00000+0  89615-3 0  9993
2 31562  99.2648 223.6318 0056701  53.2818 307.3558 14.42679896981249
FENGYUN 1C DEB          
1 31563U 99025BZE 26061.39394236  .00007568  00000+0  12678-2 0  9998
2 31563  98.9591 227.0196 0112112 193.3122 166.5116 14.65988706997114
